{"_default": { "130": {"norad_id": "45727", "name": "M2 PATHFINDER", "tle1": "1 45727U 20037E   26163.79077752  .00002450  00000-0  17857-3 0  9991", "tle2": "2 45727  97.8155 354.9736 0012129 159.9052 200.2653 15.04660769324837", "object_type": "PAYLOAD", "criticality_score": 9.0, "last_updated": "2026-06-13T11:16:06.819600+00:00", "maneuver_count": 0, "owner": "AUS"}, "162": {"norad_id": "46506", "name": "NETSAT-1", "tle1": "1 46506U 20068W   26163.24500041  .00013288  00000-0  39945-3 0  9996", "tle2": "2 46506  97.8742 163.7008 0005621  46.6964 313.4746 15.34529137314549", "object_type": "PAYLOAD", "criticality_score": 9.0, "last_updated": "2026-06-13T11:16:06.819600+00:00", "maneuver_count": 0, "owner": "GER"}, "163": {"norad_id": "46507", "name": "NETSAT-2", "tle1": "1 46507U 20068X   26163.82813856  .00023166  00000-0  47897-3 0  9993", "tle2": "2 46507  97.8613 171.5974 0004028  39.2536 320.9003 15.45817962315064", "object_type": "PAYLOAD", "criticality_score": 9.0, "last_updated": "2026-06-13T11:16:06.819600+00:00", "maneuver_count": 0, "owner": "GER"}, "164": {"norad_id": "46505", "name": "NETSAT-3", "tle1": "1 46505U 20068V   26163.26597576  .00019599  00000-0  45347-3 0  9990", "tle2": "2 46505  97.8651 169.3342 0004927  19.4008 340.7424 15.42511716314926", "object_type": "PAYLOAD", "criticality_score": 9.0, "last_updated": "2026-06-13T11:16:06.819600+00:00", "maneuver_count": 0, "owner": "GER"}, "165": {"norad_id": "46504", "name": "NETSAT-4", "tle1": "1 46504U 20068U   26163.00420917  .00016437  00000-0  36610-3 0  9996", "tle2": "2 46504  97.8603 170.8288 0004498   1.0103 359.1152 15.43693540314978", "object_type": "PAYLOAD", "criticality_score": 9.0, "last_updated": "2026-06-13T11:16:06.819600+00:00", "maneuver_count": 0, "owner": "GER"}, "212": {"norad_id": "43759", "name": "SIRION PATHFINDER-2", "tle1": "1 43759U 18099B   26163.09443395  .00004355  00000-0  23993-3 0  9996", "tle2": "2 43759  97.4258 212.2727 0007574 325.8015  34.2728 15.14503139411852", "object_type": "PAYLOAD", "criticality_score": 9.0, "last_updated": "2026-06-13T11:16:06.819600+00:00", "maneuver_count": 0, "owner": "US"}, "308": {"norad_id": "53109", "name": "AVUM R/B", "tle1": "1 53109U 22080E   26152.46502029 -.00000003  00000-0  00000-0 0  9998", "tle2": "2 53109  70.1435 303.7143 0008869 293.3663  66.6064  6.42583280 91055", "object_type": "ROCKET_BODY", "criticality_score": 3.0, "last_updated": "2026-06-13T11:16:06.819600+00:00", "maneuver_count": 0, "owner": "IT"}, "582": {"norad_id": "57204", "name": "OBJECT AQ", "tle1": "1 57204U 23091AQ  26163.84307604  .00019676  00000-0  52309-3 0  9994", "tle2": "2 57204  97.5103 234.4792 0007581  88.3970 271.8143 15.38256492164105", "object_type": "PAYLOAD", "criticality_score": 7.0, "last_updated": "2026-06-13T11:16:06.819600+00:00", "maneuver_count": 0, "owner": "CIS"}, "583": {"norad_id": "57208", "name": "OBJECT AU", "tle1": "1 57208U 23091AU  26163.85768779  .00020430  00000-0  53561-3 0  9994", "tle2": "2 57208  97.5100 234.7381 0007498  88.1270 272.0834 15.38679478164126", "object_type": "PAYLOAD", "criticality_score": 7.0, "last_updated": "2026-06-13T11:16:06.819600+00:00", "maneuver_count": 0, "owner": "CIS"}, "584": {"norad_id": "57199", "name": "OBJECT AK", "tle1": "1 57199U 23091AK  26163.82661637  .00021024  00000-0  55512-3 0  9993", "tle2": "2 57199  97.5091 234.2646 0007753  93.3142 266.8990 15.38450789164095", "object_type": "PAYLOAD", "criticality_score": 7.0, "last_updated": "2026-06-13T11:16:06.819600+00:00", "maneuver_count": 0, "owner": "CIS"}, "585": {"norad_id": "57201", "name": "OBJECT AM", "tle1": "1 57201U 23091AM  26163.85163360  .00019590  00000-0  52564-3 0  9999", "tle2": "2 57201  97.5088 234.0237 0008016  93.3336 266.8826 15.37967456164087", "object_type": "PAYLOAD", "criticality_score": 7.0, "last_updated": "2026-06-13T11:16:06.819600+00:00", "maneuver_count": 0, "owner": "CIS"}, "586": {"norad_id": "57194", "name": "OBJECT AE", "tle1": "1 57194U 23091AE  26163.85398309  .00010743  00000-0  42529-3 0  9994", "tle2": "2 57194  97.5075 226.6812 0012913 120.8565 239.3945 15.25543973163617", "object_type": "PAYLOAD", "criticality_score": 7.0, "last_updated": "2026-06-13T11:16:06.819600+00:00", "maneuver_count": 0, "owner": "CIS"}, "587": {"norad_id": "57193", "name": "OBJECT AD", "tle1": "1 57193U 23091AD  26163.84188953  .00015378  00000-0  49847-3 0  9993", "tle2": "2 57193  97.5066 229.2710 0011848 113.1656 247.0835 15.32021818163783", "object_type": "PAYLOAD", "criticality_score": 7.0, "last_updated": "2026-06-13T11:16:06.819600+00:00", "maneuver_count": 0, "owner": "CIS"}, "588": {"norad_id": "57192", "name": "OBJECT AC", "tle1": "1 57192U 23091AC  26163.85171808  .00010784  00000-0  42292-3 0  9997", "tle2": "2 57192  97.5077 226.8518 0013077 119.8541 240.3998 15.25854284163627", "object_type": "PAYLOAD", "criticality_score": 7.0, "last_updated": "2026-06-13T11:16:06.819600+00:00", "maneuver_count": 0, "owner": "CIS"}, "589": {"norad_id": "57176", "name": "OBJECT L", "tle1": "1 57176U 23091L   26163.81724950  .00012455  00000-0  43882-3 0  9990", "tle2": "2 57176  97.5069 227.6750 0012774 116.9115 243.3432 15.29358771163670", "object_type": "PAYLOAD", "criticality_score": 7.0, "last_updated": "2026-06-13T11:16:06.819600+00:00", "maneuver_count": 0, "owner": "CIS"}, "756": {"norad_id": "43767", "name": "CORVUS BC4", "tle1": "1 43767U 18099K   26163.09410001  .00003443  00000-0  20154-3 0  9996", "tle2": "2 43767  97.4071 206.2233 0008844  30.0486 330.1251 15.12454193411635", "object_type": "PAYLOAD", "criticality_score": 9.0, "last_updated": "2026-06-13T11:16:06.819600+00:00", "maneuver_count": 0, "owner": "US"}, "784": {"norad_id": "59071", "name": "OBJECT U", "tle1": "1 59071U 24039U   26163.83700813  .00002888  00000-0  22544-3 0  9994", "tle2": "2 59071  95.3917 232.3182 0143281 343.1201  16.5282 14.93741734124095", "object_type": "PAYLOAD", "criticality_score": 7.0, "last_updated": "2026-06-13T11:16:06.819600+00:00", "maneuver_count": 0, "owner": "CIS"}, "785": {"norad_id": "59068", "name": "OBJECT T", "tle1": "1 59068U 24039T   26163.85947233  .00003333  00000-0  25993-3 0  9998", "tle2": "2 59068  95.3916 232.2865 0143343 343.1965  16.4536 14.93707962124099", "object_type": "PAYLOAD", "criticality_score": 7.0, "last_updated": "2026-06-13T11:16:06.819600+00:00", "maneuver_count": 0, "owner": "CIS"}, "786": {"norad_id": "59067", "name": "OBJECT S", "tle1": "1 59067U 24039S   26163.88801855  .00002722  00000-0  21468-3 0  9993", "tle2": "2 59067  95.3915 232.0365 0144342 344.5152  15.1678 14.93290503124072", "object_type": "PAYLOAD", "criticality_score": 7.0, "last_updated": "2026-06-13T11:16:06.819600+00:00", "maneuver_count": 0, "owner": "CIS"}, "787": {"norad_id": "59066", "name": "OBJECT R", "tle1": "1 59066U 24039R   26163.88723223  .00002793  00000-0  21922-3 0  9997", "tle2": "2 59066  95.3915 232.1373 0143991 343.9436  15.7249 14.93493982124085", "object_type": "PAYLOAD", "criticality_score": 7.0, "last_updated": "2026-06-13T11:16:06.819600+00:00", "maneuver_count": 0, "owner": "CIS"}, "875": {"norad_id": "60237", "name": "OBJECT C", "tle1": "1 60237U 24128C   26163.77333337  .00003691  00000-0  25772-3 0  9994", "tle2": "2 60237  61.9896 231.7519 0041192 133.7037 226.7481 15.06613019105602", "object_type": "PAYLOAD", "criticality_score": 7.0, "last_updated": "2026-06-13T11:16:06.819600+00:00", "maneuver_count": 0, "owner": "SVK"}, "879": {"norad_id": "60243", "name": "ROBUSTA-3A", "tle1": "1 60243U 24128J   26163.30603974  .00007007  00000-0  41454-3 0  9997", "tle2": "2 60243  61.9860 225.5052 0041864 127.2589 233.2336 15.11623087105681", "object_type": "PAYLOAD", "criticality_score": 7.0, "last_updated": "2026-06-13T11:16:06.819600+00:00", "maneuver_count": 0, "owner": "FR"}, "881": {"norad_id": "60240", "name": "OOV-CUBE", "tle1": "1 60240U 24128F   26162.59923854  .00001977  00000-0  15980-3 0  9991", "tle2": "2 60240  61.9950 245.0577 0045327 132.4986 227.9949 15.02751187105272", "object_type": "PAYLOAD", "criticality_score": 7.0, "last_updated": "2026-06-13T11:16:06.819600+00:00", "maneuver_count": 0, "owner": "GER"}, "1054": {"norad_id": "62394", "name": "CROCUBE", "tle1": "1 62394U 24247T   26163.26391119  .00040736  00000-0  76592-3 0  9995", "tle2": "2 62394  44.9724 287.2870 0008261 307.3288  52.6849 15.47921042 82580", "object_type": "PAYLOAD", "criticality_score": 7.0, "last_updated": "2026-06-13T11:16:06.819600+00:00", "maneuver_count": 0, "owner": "HRV"}, "1055": {"norad_id": "62391", "name": "LASARSAT", "tle1": "1 62391U 24247Q   26163.06628026  .00032134  00000-0  64660-3 0  9996", "tle2": "2 62391  44.9753 290.9829 0008404 302.5447  57.4631 15.46059259 82524", "object_type": "PAYLOAD", "criticality_score": 7.0, "last_updated": "2026-06-13T11:16:06.819600+00:00", "maneuver_count": 0, "owner": "CZCH"}, "1409": {"norad_id": "66778", "name": "FORESAIL-1 PRIME", "tle1": "1 66778U 25276DS  26163.18669092  .00004559  00000-0  22325-3 0  9995", "tle2": "2 66778  97.4203 236.5489 0003864 113.4472 246.7169 15.18657242 29648", "object_type": "PAYLOAD", "criticality_score": 7.0, "last_updated": "2026-06-13T11:13:51.556426+00:00", "maneuver_count": 0, "owner": "FIN"}, "1478": {"norad_id": "67683", "name": "KNACKSAT-2", "tle1": "1 67683U 98067XZ  26162.71234266  .00046941  00000-0  58268-3 0  9994", "tle2": "2 67683  51.6308 322.0071 0009845 191.1847 168.8928 15.59478995 19427", "object_type": "PAYLOAD", "criticality_score": 7.0, "last_updated": "2026-06-13T11:13:51.556426+00:00", "maneuver_count": 0, "owner": "THAI"}}}