OBJECT_NAME,OBJECT_ID,EPOCH,MEAN_MOTION,ECCENTRICITY,INCLINATION,RA_OF_ASC_NODE,ARG_OF_PERICENTER,MEAN_ANOMALY,EPHEMERIS_TYPE,CLASSIFICATION_TYPE,NORAD_CAT_ID,ELEMENT_SET_NO,REV_AT_EPOCH,BSTAR,MEAN_MOTION_DOT,MEAN_MOTION_DDOT
SIRION PATHFINDER-2,2018-099B,2026-06-12T02:15:59.093280,15.14503139,.00075735,97.4258,212.2727,325.8015,34.2728,0,U,43759,999,41185,.23993243E-3,.4355E-4,0
CORVUS BC4,2018-099K,2026-06-12T02:15:30.240864,15.12454193,.00088443,97.4071,206.2233,30.0486,330.1251,0,U,43767,999,41163,.20153531E-3,.3443E-4,0
M2 PATHFINDER,2020-037E,2026-06-12T18:58:43.177728,15.04660769,.0012129,97.8155,354.9736,159.9052,200.2653,0,U,45727,999,32483,.17857E-3,.245E-4,0
NETSAT-4,2020-068U,2026-06-12T00:06:03.672288,15.43693540,.00044978,97.8603,170.8288,1.0103,359.1152,0,U,46504,999,31497,.36610083E-3,.16437E-3,0
NETSAT-3,2020-068V,2026-06-12T06:23:00.305664,15.42511716,.00049268,97.8651,169.3342,19.4008,340.7424,0,U,46505,999,31492,.45347216E-3,.19599E-3,0
NETSAT-1,2020-068W,2026-06-12T05:52:48.035424,15.34529137,.00056209,97.8742,163.7008,46.6964,313.4746,0,U,46506,999,31454,.39944755E-3,.13288E-3,0
NETSAT-2,2020-068X,2026-06-12T19:52:31.171584,15.45817962,.0004028,97.8613,171.5974,39.2536,320.9003,0,U,46507,999,31506,.47897E-3,.23166E-3,0
GREENCUBE (IO-117),2022-080E,2026-06-01T11:09:37.753056,6.42583280,.00088692,70.1435,303.7143,293.3663,66.6064,0,U,53109,999,9105,0,-.3E-7,0
SITRO-AIS 5 (KATYS),2023-091L,2026-06-12T19:36:50.356800,15.29358771,.0012774,97.5069,227.6750,116.9115,243.3432,0,U,57176,999,16367,.43882E-3,.12455E-3,0
SITRO-AIS 6 (CHIRKIN),2023-091AC,2026-06-12T20:26:28.442112,15.25854284,.0013077,97.5077,226.8518,119.8541,240.3998,0,U,57192,999,16362,.42292E-3,.10784E-3,0
SITRO-AIS 8 (ANOKHIN),2023-091AD,2026-06-12T20:12:19.255392,15.32021818,.0011848,97.5066,229.2710,113.1656,247.0835,0,U,57193,999,16378,.49847E-3,.15378E-3,0
SITRO-AIS 7 (FARTUSHNIY),2023-091AE,2026-06-12T20:29:44.138976,15.25543973,.0012913,97.5075,226.6812,120.8565,239.3945,0,U,57194,999,16361,.42529E-3,.10743E-3,0
SITRO-AIS 10 (BURDAEV),2023-091AK,2026-06-12T19:50:19.654368,15.38450789,.0007753,97.5091,234.2646,93.3142,266.8990,0,U,57199,999,16409,.55512E-3,.21024E-3,0
SITRO-AIS 9 (SHCHUKIN),2023-091AM,2026-06-12T20:26:21.143040,15.37967456,.0008016,97.5088,234.0237,93.3336,266.8826,0,U,57201,999,16408,.52564E-3,.1959E-3,0
SITRO-AIS 12 (SMIRENNIY),2023-091AQ,2026-06-12T20:14:01.769856,15.38256492,.0007581,97.5103,234.4792,88.3970,271.8143,0,U,57204,999,16410,.52309E-3,.19676E-3,0
SITRO-AIS 11 (SHEFFER),2023-091AU,2026-06-12T20:35:04.225056,15.38679478,.0007498,97.5100,234.7381,88.1270,272.0834,0,U,57208,999,16412,.53561E-3,.2043E-3,0
SITRO-AIS 25,2024-039R,2026-06-12T21:17:36.864672,14.93493982,.0143991,95.3915,232.1373,343.9436,15.7249,0,U,59066,999,12408,.21922E-3,.2793E-4,0
SITRO-AIS 26,2024-039S,2026-06-12T21:18:44.802720,14.93290503,.0144342,95.3915,232.0365,344.5152,15.1678,0,U,59067,999,12407,.21468E-3,.2722E-4,0
SITRO-AIS 27,2024-039T,2026-06-12T20:37:38.409312,14.93707962,.0143343,95.3916,232.2865,343.1965,16.4536,0,U,59068,999,12409,.25993E-3,.3333E-4,0
SITRO-AIS 28,2024-039U,2026-06-12T20:05:17.502432,14.93741734,.0143281,95.3917,232.3182,343.1201,16.5282,0,U,59071,999,12409,.22544E-3,.2888E-4,0
GRBBETA,2024-128C,2026-06-12T18:33:36.003168,15.06613019,.0041192,61.9896,231.7519,133.7037,226.7481,0,U,60237,999,10560,.25772E-3,.3691E-4,0
OOV-CUBE (TUBSAT-30),2024-128F,2026-06-11T14:22:54.209856,15.02751187,.0045327,61.9950,245.0577,132.4986,227.9949,0,U,60240,999,10527,.1598E-3,.1977E-4,0
ROBUSTA-3A (MEDITERRANEE),2024-128J,2026-06-12T07:20:41.833536,15.11623087,.00418641,61.9860,225.5052,127.2589,233.2336,0,U,60243,999,10568,.41453547E-3,.7007E-4,0
LASARSAT,2024-247Q,2026-06-12T01:35:26.614464,15.46059259,.00084039,44.9753,290.9829,302.5447,57.4631,0,U,62391,999,8252,.64660115E-3,.32134E-3,0
CROCUBE,2024-247T,2026-06-12T06:20:01.926816,15.47921042,.00082607,44.9724,287.2870,307.3288,52.6849,0,U,62394,999,8258,.76592407E-3,.40736E-3,0
FORESAIL-1 PRIME,2025-276DS,2026-06-12T04:28:50.095488,15.18657242,.00038644,97.4203,236.5489,113.4472,246.7169,0,U,66778,999,2964,.22324714E-3,.4559E-4,0
KNACKSAT-2,1998-067XZ,2026-06-11T17:05:46.405824,15.59478995,.00098455,51.6308,322.0071,191.1847,168.8928,0,U,67683,999,1942,.58268258E-3,.46941E-3,0
